{
  "type": "FeatureCollection",
  "name": "heat_zones",
  "crs": {
    "type": "name",
    "properties": {
      "name": "urn:ogc:def:crs:OGC:1.3:CRS84"
    }
  },
  "_comment": "Self-digitized in geojson.io on top of satellite imagery for the HeatSafe Berlin pilot. risk_level and temp_indicator are visual estimates from land cover, NOT measured temperatures and NOT taken from any official climate model or sensor network.",
  "features": [
    {
      "type": "Feature",
      "properties": {
        "name": "Rathausforum",
        "risk_level": "high",
        "temp_indicator": 37.2,
        "surface_type": "sealed",
        "data_source": "self_digitized"
      },
      "geometry": {
        "type": "Polygon",
        "coordinates": [
          [
            [
              13.407043498724278,
              52.519205685639946
            ],
            [
              13.409454848849265,
              52.519205685639946
            ],
            [
              13.409454848849265,
              52.517686879726284
            ],
            [
              13.4066498,
              52.517548
            ],
            [
              13.4066633,
              52.5184419
            ],
            [
              13.407043498724278,
              52.519205685639946
            ]
          ]
        ]
      }
    },
    {
      "type": "Feature",
      "properties": {
        "name": "Alt Berlin",
        "risk_level": "medium",
        "temp_indicator": 32.5,
        "surface_type": "mixed",
        "data_source": "self_digitized"
      },
      "geometry": {
        "type": "Polygon",
        "coordinates": [
          [
            [
              13.4080776,
              52.5203171
            ],
            [
              13.4075016,
              52.5195805
            ],
            [
              13.4084201,
              52.518632
            ],
            [
              13.4105071,
              52.5185376
            ],
            [
              13.4108455,
              52.5194815
            ],
            [
              13.4096187,
              52.5199706
            ],
            [
              13.4080776,
              52.5203171
            ]
          ]
        ]
      }
    },
    {
      "type": "Feature",
      "properties": {
        "name": "Alexanderplatz Zentrum",
        "risk_level": "high",
        "temp_indicator": 38.2,
        "surface_type": "sealed",
        "data_source": "self_digitized"
      },
      "geometry": {
        "type": "Polygon",
        "coordinates": [
          [
            [
              13.4093262,
              52.5232814
            ],
            [
              13.407775,
              52.5220716
            ],
            [
              13.4125977,
              52.5189912
            ],
            [
              13.4163487,
              52.52051
            ],
            [
              13.4132182,
              52.5222947
            ],
            [
              13.4093262,
              52.5232814
            ]
          ]
        ]
      }
    },
    {
      "type": "Feature",
      "properties": {
        "name": "Spandauer Vorstadt",
        "risk_level": "medium",
        "temp_indicator": 33.5,
        "surface_type": "mixed",
        "data_source": "self_digitized"
      },
      "geometry": {
        "type": "Polygon",
        "coordinates": [
          [
            [
              13.3950707,
              52.5262872
            ],
            [
              13.3985041,
              52.5267514
            ],
            [
              13.4025478,
              52.5260242
            ],
            [
              13.4015051,
              52.523177
            ],
            [
              13.3946383,
              52.5237341
            ],
            [
              13.3950707,
              52.5262872
            ]
          ]
        ]
      }
    },
    {
      "type": "Feature",
      "properties": {
        "name": "Spreeinsel Museumsinsel",
        "risk_level": "high",
        "temp_indicator": 38.2,
        "surface_type": "sealed",
        "data_source": "self_digitized"
      },
      "geometry": {
        "type": "Polygon",
        "coordinates": [
          [
            [
              13.3913526,
              52.5198169
            ],
            [
              13.3910907,
              52.5156414
            ],
            [
              13.3993143,
              52.5157371
            ],
            [
              13.3999952,
              52.5200719
            ],
            [
              13.3952287,
              52.5211236
            ],
            [
              13.3913526,
              52.5198169
            ]
          ]
        ]
      }
    },
    {
      "type": "Feature",
      "properties": {
        "name": "Volkspark Friedrichshain",
        "risk_level": "low",
        "temp_indicator": 29.0,
        "surface_type": "vegetated",
        "data_source": "self_digitized"
      },
      "geometry": {
        "type": "Polygon",
        "coordinates": [
          [
            [
              13.4258706,
              52.5286765
            ],
            [
              13.4226755,
              52.5252986
            ],
            [
              13.4316847,
              52.5237689
            ],
            [
              13.4375512,
              52.5242469
            ],
            [
              13.4428415,
              52.5267963
            ],
            [
              13.4401178,
              52.5297917
            ],
            [
              13.4334132,
              52.5305246
            ],
            [
              13.4258706,
              52.5286765
            ]
          ]
        ]
      }
    },
    {
      "type": "Feature",
      "properties": {
        "name": "Strausberger Platz",
        "risk_level": "medium",
        "temp_indicator": 33.8,
        "surface_type": "mixed",
        "data_source": "self_digitized"
      },
      "geometry": {
        "type": "Polygon",
        "coordinates": [
          [
            [
              13.4250194,
              52.5205116
            ],
            [
              13.4348831,
              52.5198603
            ],
            [
              13.4386298,
              52.51544
            ],
            [
              13.428919,
              52.5132064
            ],
            [
              13.421808,
              52.518162
            ],
            [
              13.4250194,
              52.5205116
            ]
          ]
        ]
      }
    },
    {
      "type": "Feature",
      "properties": {
        "name": "Neu-Coelln am Wasser",
        "risk_level": "low",
        "temp_indicator": 30.7,
        "surface_type": "water_adjacent",
        "data_source": "self_digitized"
      },
      "geometry": {
        "type": "Polygon",
        "coordinates": [
          [
            [
              13.4068733,
              52.5130039
            ],
            [
              13.4157993,
              52.5147014
            ],
            [
              13.4261509,
              52.511212
            ],
            [
              13.4123256,
              52.5079676
            ],
            [
              13.4070496,
              52.508782
            ],
            [
              13.4068733,
              52.5130039
            ]
          ]
        ]
      }
    }
  ]
}