{
  "type": "FeatureCollection",
  "name": "heat_zones_pilot_alexanderplatz",
  "note": "DEMONSTRATION DATA. These polygons were drawn by hand for the HeatSafe Berlin pilot to test the system architecture. The risk levels and temperature indicators are illustrative estimates based on visible land cover (sealed surface vs. tree canopy vs. water), NOT measured or modelled values from an official climate dataset.",
  "crs": { "type": "name", "properties": { "name": "urn:ogc:def:crs:OGC:1.3:CRS84" } },
  "features": [
    {
      "type": "Feature",
      "properties": {
        "name": "Alexanderplatz Zentrum",
        "risk_level": "high",
        "temp_indicator": 38.5,
        "surface_type": "sealed",
        "data_source": "demonstration"
      },
      "geometry": {
        "type": "Polygon",
        "coordinates": [[
          [13.4085, 52.5235],
          [13.4175, 52.5235],
          [13.4180, 52.5195],
          [13.4090, 52.5192],
          [13.4085, 52.5235]
        ]]
      }
    },
    {
      "type": "Feature",
      "properties": {
        "name": "Rathausforum",
        "risk_level": "high",
        "temp_indicator": 37.2,
        "surface_type": "sealed",
        "data_source": "demonstration"
      },
      "geometry": {
        "type": "Polygon",
        "coordinates": [[
          [13.4040, 52.5205],
          [13.4105, 52.5208],
          [13.4108, 52.5168],
          [13.4045, 52.5165],
          [13.4040, 52.5205]
        ]]
      }
    },
    {
      "type": "Feature",
      "properties": {
        "name": "Karl-Marx-Allee West",
        "risk_level": "medium",
        "temp_indicator": 34.0,
        "surface_type": "mixed",
        "data_source": "demonstration"
      },
      "geometry": {
        "type": "Polygon",
        "coordinates": [[
          [13.4180, 52.5215],
          [13.4300, 52.5220],
          [13.4302, 52.5185],
          [13.4182, 52.5180],
          [13.4180, 52.5215]
        ]]
      }
    },
    {
      "type": "Feature",
      "properties": {
        "name": "Spandauer Vorstadt",
        "risk_level": "medium",
        "temp_indicator": 33.5,
        "surface_type": "mixed",
        "data_source": "demonstration"
      },
      "geometry": {
        "type": "Polygon",
        "coordinates": [[
          [13.3950, 52.5290],
          [13.4060, 52.5292],
          [13.4062, 52.5245],
          [13.3952, 52.5242],
          [13.3950, 52.5290]
        ]]
      }
    },
    {
      "type": "Feature",
      "properties": {
        "name": "Volkspark Friedrichshain",
        "risk_level": "low",
        "temp_indicator": 29.0,
        "surface_type": "vegetated",
        "data_source": "demonstration"
      },
      "geometry": {
        "type": "Polygon",
        "coordinates": [[
          [13.4270, 52.5300],
          [13.4390, 52.5305],
          [13.4392, 52.5250],
          [13.4272, 52.5245],
          [13.4270, 52.5300]
        ]]
      }
    },
    {
      "type": "Feature",
      "properties": {
        "name": "Spreeinsel Museumsinsel",
        "risk_level": "low",
        "temp_indicator": 30.5,
        "surface_type": "water_adjacent",
        "data_source": "demonstration"
      },
      "geometry": {
        "type": "Polygon",
        "coordinates": [[
          [13.3945, 52.5215],
          [13.4030, 52.5218],
          [13.4032, 52.5170],
          [13.3947, 52.5168],
          [13.3945, 52.5215]
        ]]
      }
    }
  ]
}
